{"fetched_at":"2026-07-18T17:29:31.619Z","source":"https://celestrak.org/NORAD/elements/gp.php?GROUP=oneweb&FORMAT=JSON","constellation":"oneweb","records":[{"OBJECT_NAME":"ONEWEB-0461","OBJECT_ID":"2022-012AD","EPOCH":"2026-07-18T01:25:12.159264","CLASSIFICATION_TYPE":"U","MEAN_MOTION":13.1765069,"ECCENTRICITY":0.00019233,"INCLINATION":87.916,"RA_OF_ASC_NODE":359.718,"ARG_OF_PERICENTER":90.3271,"MEAN_ANOMALY":269.8081,"EPHEMERIS_TYPE":0,"NORAD_CAT_ID":51649,"ELEMENT_SET_NO":999,"REV_AT_EPOCH":21795,"BSTAR":-0.000038799813,"MEAN_MOTION_DOT":-2e-8,"MEAN_MOTION_DDOT":0},{"OBJECT_NAME":"ONEWEB-0463","OBJECT_ID":"2022-012AE","EPOCH":"2026-07-17T23:09:07.341120","CLASSIFICATION_TYPE":"U","MEAN_MOTION":13.17650512,"ECCENTRICITY":0.00019691,"INCLINATION":87.9147,"RA_OF_ASC_NODE":359.7565,"ARG_OF_PERICENTER":90.3209,"MEAN_ANOMALY":269.8148,"EPHEMERIS_TYPE":0,"NORAD_CAT_ID":51650,"ELEMENT_SET_NO":999,"REV_AT_EPOCH":21772,"BSTAR":-0.000009658763,"MEAN_MOTION_DOT":9e-8,"MEAN_MOTION_DDOT":0},{"OBJECT_NAME":"ONEWEB-0464","OBJECT_ID":"2022-012AF","EPOCH":"2026-07-18T00:50:10.158720","CLASSIFICATION_TYPE":"U","MEAN_MOTION":13.10375658,"ECCENTRICITY":0.00016163,"INCLINATION":87.8816,"RA_OF_ASC_NODE":30.1328,"ARG_OF_PERICENTER":95.2991,"MEAN_ANOMALY":264.8321,"EPHEMERIS_TYPE":0,"NORAD_CAT_ID":51651,"ELEMENT_SET_NO":999,"REV_AT_EPOCH":21336,"BSTAR":-0.00072165001,"MEAN_MOTION_DOT":-0.00000239,"MEAN_MOTION_DDOT":0},{"OBJECT_NAME":"ONEWEB-0468","OBJECT_ID":"2022-012AG","EPOCH":"2026-07-18T00:57:29.022336","CLASSIFICATION_TYPE":"U","MEAN_MOTION":13.10375407,"ECCENTRICITY":0.00017124,"INCLINATION":87.8816,"RA_OF_ASC_NODE":30.1249,"ARG_OF_PERICENTER":95.3244,"MEAN_ANOMALY":264.8079,"EPHEMERIS_TYPE":0,"NORAD_CAT_ID":51652,"ELEMENT_SET_NO":999,"REV_AT_EPOCH":21334,"BSTAR":0.000055192476,"MEAN_MOTION_DOT":3.2e-7,"MEAN_MOTION_DDOT":0},{"OBJECT_NAME":"ONEWEB-0473","OBJECT_ID":"2022-012AH","EPOCH":"2026-07-18T06:07:48.739008","CLASSIFICATION_TYPE":"U","MEAN_MOTION":13.10375166,"ECCENTRICITY":0.00018461,"INCLINATION":87.8813,"RA_OF_ASC_NODE":30.0839,"ARG_OF_PERICENTER":90.497,"MEAN_ANOMALY":269.6369,"EPHEMERIS_TYPE":0,"NORAD_CAT_ID":51653,"ELEMENT_SET_NO":999,"REV_AT_EPOCH":21337,"BSTAR":-0.0017774668,"MEAN_MOTION_DOT":-0.00000608,"MEAN_MOTION_DDOT":0},{"OBJECT_NAME":"ONEWEB-0474","OBJECT_ID":"2022-012AJ","EPOCH":"2026-07-18T05:55:34.948128","CLASSIFICATION_TYPE":"U","MEAN_MOTION":13.10372347,"ECCENTRICITY":0.00016182,"INCLINATION":87.8821,"RA_OF_ASC_NODE":30.0729,"ARG_OF_PERICENTER":96.003,"MEAN_ANOMALY":264.1282,"EPHEMERIS_TYPE":0,"NORAD_CAT_ID":51654,"ELEMENT_SET_NO":999,"REV_AT_EPOCH":21336,"BSTAR":-0.0020178361,"MEAN_MOTION_DOT":-0.00000692,"MEAN_MOTION_DDOT":0},{"OBJECT_NAME":"ONEWEB-0475","OBJECT_ID":"2022-012AK","EPOCH":"2026-07-18T04:54:11.561472","CLASSIFICATION_TYPE":"U","MEAN_MOTION":13.1764811,"ECCENTRICITY":0.0001522,"INCLINATION":87.915,"RA_OF_ASC_NODE":359.7023,"ARG_OF_PERICENTER":113.6571,"MEAN_ANOMALY":246.472,"EPHEMERIS_TYPE":0,"NORAD_CAT_ID":51655,"ELEMENT_SET_NO":999,"REV_AT_EPOCH":21777,"BSTAR":-0.00010020355,"MEAN_MOTION_DOT":-2.6e-7,"MEAN_MOTION_DDOT":0},{"OBJECT_NAME":"ONEWEB-0490","OBJECT_ID":"2022-138A","EPOCH":"2026-07-18T05:16:01.738848","CLASSIFICATION_TYPE":"U","MEAN_MOTION":13.1972698,"ECCENTRICITY":0.00020875,"INCLINATION":87.9192,"RA_OF_ASC_NODE":298.7894,"ARG_OF_PERICENTER":104.5964,"MEAN_ANOMALY":255.54,"EPHEMERIS_TYPE":0,"NORAD_CAT_ID":54113,"ELEMENT_SET_NO":999,"REV_AT_EPOCH":18092,"BSTAR":0.0002358088,"MEAN_MOTION_DOT":0.00000107,"MEAN_MOTION_DDOT":0},{"OBJECT_NAME":"ONEWEB-0492","OBJECT_ID":"2022-138B","EPOCH":"2026-07-18T05:52:24.568320","CLASSIFICATION_TYPE":"U","MEAN_MOTION":13.19723948,"ECCENTRICITY":0.00022547,"INCLINATION":87.9185,"RA_OF_ASC_NODE":298.7838,"ARG_OF_PERICENTER":102.804,"MEAN_ANOMALY":257.3345,"EPHEMERIS_TYPE":0,"NORAD_CAT_ID":54114,"ELEMENT_SET_NO":999,"REV_AT_EPOCH":18093,"BSTAR":0.00027608267,"MEAN_MOTION_DOT":0.00000123,"MEAN_MOTION_DDOT":0},{"OBJECT_NAME":"ONEWEB-0495","OBJECT_ID":"2022-138C","EPOCH":"2026-07-17T20:14:42.059040","CLASSIFICATION_TYPE":"U","MEAN_MOTION":13.19726302,"ECCENTRICITY":0.00022973,"INCLINATION":87.9186,"RA_OF_ASC_NODE":298.8665,"ARG_OF_PERICENTER":117.1379,"MEAN_ANOMALY":242.9988,"EPHEMERIS_TYPE":0,"NORAD_CAT_ID":54115,"ELEMENT_SET_NO":999,"REV_AT_EPOCH":18086,"BSTAR":0.00015429871,"MEAN_MOTION_DOT":7.5e-7,"MEAN_MOTION_DDOT":0},{"OBJECT_NAME":"ONEWEB-0497","OBJECT_ID":"2022-138D","EPOCH":"2026-07-18T05:38:45.619008","CLASSIFICATION_TYPE":"U","MEAN_MOTION":13.19723702,"ECCENTRICITY":0.00020405,"INCLINATION":87.9194,"RA_OF_ASC_NODE":298.7823,"ARG_OF_PERICENTER":103.2334,"MEAN_ANOMALY":256.9027,"EPHEMERIS_TYPE":0,"NORAD_CAT_ID":54116,"ELEMENT_SET_NO":999,"REV_AT_EPOCH":18090,"BSTAR":0.00021679763,"MEAN_MOTION_DOT":0.000001,"MEAN_MOTION_DDOT":0},{"OBJECT_NAME":"ONEWEB-0499","OBJECT_ID":"2022-138E","EPOCH":"2026-07-18T05:14:53.744640","CLASSIFICATION_TYPE":"U","MEAN_MOTION":13.19724819,"ECCENTRICITY":0.00020198,"INCLINATION":87.9184,"RA_OF_ASC_NODE":298.7925,"ARG_OF_PERICENTER":107.4211,"MEAN_ANOMALY":252.7143,"EPHEMERIS_TYPE":0,"NORAD_CAT_ID":54117,"ELEMENT_SET_NO":999,"REV_AT_EPOCH":18091,"BSTAR":0.0001165948,"MEAN_MOTION_DOT":6e-7,"MEAN_MOTION_DDOT":0},{"OBJECT_NAME":"ONEWEB-0500","OBJECT_ID":"2022-138F","EPOCH":"2026-07-17T20:12:26.169120","CLASSIFICATION_TYPE":"U","MEAN_MOTION":13.19726129,"ECCENTRICITY":0.00020796,"INCLINATION":87.919,"RA_OF_ASC_NODE":298.8635,"ARG_OF_PERICENTER":98.2441,"MEAN_ANOMALY":261.8927,"EPHEMERIS_TYPE":0,"NORAD_CAT_ID":54118,"ELEMENT_SET_NO":999,"REV_AT_EPOCH":18087,"BSTAR":0.00014621969,"MEAN_MOTION_DOT":7.1e-7,"MEAN_MOTION_DDOT":0},{"OBJECT_NAME":"ONEWEB-0501","OBJECT_ID":"2022-138G","EPOCH":"2026-07-17T19:06:28.763136","CLASSIFICATION_TYPE":"U","MEAN_MOTION":13.19726341,"ECCENTRICITY":0.00021461,"INCLINATION":87.9193,"RA_OF_ASC_NODE":298.873,"ARG_OF_PERICENTER":112.0274,"MEAN_ANOMALY":248.1087,"EPHEMERIS_TYPE":0,"NORAD_CAT_ID":54119,"ELEMENT_SET_NO":999,"REV_AT_EPOCH":18084,"BSTAR":0.000017714351,"MEAN_MOTION_DOT":2e-7,"MEAN_MOTION_DDOT":0},{"OBJECT_NAME":"ONEWEB-0502","OBJECT_ID":"2022-138H","EPOCH":"2026-07-18T05:41:01.900320","CLASSIFICATION_TYPE":"U","MEAN_MOTION":13.1972384,"ECCENTRICITY":0.00019524,"INCLINATION":87.9196,"RA_OF_ASC_NODE":298.7741,"ARG_OF_PERICENTER":107.9019,"MEAN_ANOMALY":252.2327,"EPHEMERIS_TYPE":0,"NORAD_CAT_ID":54120,"ELEMENT_SET_NO":999,"REV_AT_EPOCH":18092,"BSTAR":0.00012064276,"MEAN_MOTION_DOT":6.1e-7,"MEAN_MOTION_DDOT":0},{"OBJECT_NAME":"ONEWEB-0503","OBJECT_ID":"2022-138J","EPOCH":"2026-07-17T23:57:36.106848","CLASSIFICATION_TYPE":"U","MEAN_MOTION":13.19725691,"ECCENTRICITY":0.00017602,"INCLINATION":87.9196,"RA_OF_ASC_NODE":298.8283,"ARG_OF_PERICENTER":99.3208,"MEAN_ANOMALY":260.8124,"EPHEMERIS_TYPE":0,"NORAD_CAT_ID":54121,"ELEMENT_SET_NO":999,"REV_AT_EPOCH":18088,"BSTAR":-0.000013570891,"MEAN_MOTION_DOT":8e-8,"MEAN_MOTION_DDOT":0}]}
