ONEWEB-0461             
1 51649U 22012AD  26199.05916851 -.00000002  00000+0 -38800-4 0  9990
2 51649  87.9160 359.7180 0001923  90.3271 269.8081 13.17650690217954
ONEWEB-0463             
1 51650U 22012AE  26198.96466830  .00000009  00000+0 -96588-5 0  9992
2 51650  87.9147 359.7565 0001969  90.3209 269.8148 13.17650512217721
ONEWEB-0464             
1 51651U 22012AF  26199.03483980 -.00000239  00000+0 -72165-3 0  9996
2 51651  87.8816  30.1328 0001616  95.2991 264.8321 13.10375658213364
ONEWEB-0468             
1 51652U 22012AG  26199.03991924  .00000032  00000+0  55192-4 0  9990
2 51652  87.8816  30.1249 0001712  95.3244 264.8079 13.10375407213346
ONEWEB-0473             
1 51653U 22012AH  26199.25542522 -.00000608  00000+0 -17775-2 0  9995
2 51653  87.8813  30.0839 0001846  90.4970 269.6369 13.10375166213378
ONEWEB-0474             
1 51654U 22012AJ  26199.24693227 -.00000692  00000+0 -20178-2 0  9998
2 51654  87.8821  30.0729 0001618  96.0030 264.1282 13.10372347213363
ONEWEB-0475             
1 51655U 22012AK  26199.20430048 -.00000026  00000+0 -10020-3 0  9992
2 51655  87.9150 359.7023 0001522 113.6571 246.4720 13.17648110217778
ONEWEB-0490             
1 54113U 22138A   26199.21946457  .00000107  00000+0  23581-3 0  9994
2 54113  87.9192 298.7894 0002087 104.5964 255.5400 13.19726980180922
ONEWEB-0492             
1 54114U 22138B   26199.24472880  .00000123  00000+0  27608-3 0  9994
2 54114  87.9185 298.7838 0002254 102.8040 257.3345 13.19723948180935
ONEWEB-0495             
1 54115U 22138C   26198.84354235  .00000075  00000+0  15430-3 0  9999
2 54115  87.9186 298.8665 0002297 117.1379 242.9988 13.19726302180869
ONEWEB-0497             
1 54116U 22138D   26199.23525022  .00000100  00000+0  21680-3 0  9991
2 54116  87.9194 298.7823 0002040 103.2334 256.9027 13.19723702180902
ONEWEB-0499             
1 54117U 22138E   26199.21867760  .00000060  00000+0  11659-3 0  9998
2 54117  87.9184 298.7925 0002019 107.4211 252.7143 13.19724819180915
ONEWEB-0500             
1 54118U 22138F   26198.84196955  .00000071  00000+0  14622-3 0  9993
2 54118  87.9190 298.8635 0002079  98.2441 261.8927 13.19726129180872
ONEWEB-0501             
1 54119U 22138G   26198.79616624  .00000020  00000+0  17714-4 0  9998
2 54119  87.9193 298.8730 0002146 112.0274 248.1087 13.19726341180844
ONEWEB-0502             
1 54120U 22138H   26199.23682755  .00000061  00000+0  12064-3 0  9995
2 54120  87.9196 298.7741 0001952 107.9019 252.2327 13.19723840180927
ONEWEB-0503             
1 54121U 22138J   26198.99833457  .00000008  00000+0 -13571-4 0  9992
2 54121  87.9196 298.8283 0001760  99.3208 260.8124 13.19725691180882
